{"type": "FeatureCollection", "features": [{"type": "Feature", "properties": {"norad_id": 36828, "name": "BEIDOU-2 IGSO-1 (C06)", "group": "beidou", "lat": -51.4134139749193, "lon": 49.09196110364291, "alt_km": 35619.84768923235, "timestamp": "2025-12-21T14:40:48.181672+00:00", "meta": {"OBJECT_NAME": "BEIDOU-2 IGSO-1 (C06)", "OBJECT_ID": "2010-036A", "EPOCH": "2025-12-20T21:47:26.739168", "MEAN_MOTION": 1.00282395, "ECCENTRICITY": 0.0051798, "INCLINATION": 54.2882, "RA_OF_ASC_NODE": 164.5739, "ARG_OF_PERICENTER": 215.2932, "MEAN_ANOMALY": 144.6604, "EPHEMERIS_TYPE": 0, "CLASSIFICATION_TYPE": "U", "NORAD_CAT_ID": 36828, "ELEMENT_SET_NO": 999, "REV_AT_EPOCH": 5631, "BSTAR": 0, "MEAN_MOTION_DOT": -5.5e-07, "MEAN_MOTION_DDOT": 0}, "tle": {"line1": "1 36828U 10036A   25354.90794837 -.00000055  00000+0  00000+0 0  9992", "line2": "2 36828  54.2882 164.5739 0051798 215.2932 144.6604  1.00282395 56317"}}, "geometry": {"type": "Point", "coordinates": [49.09196110364291, -51.4134139749193]}}, {"type": "Feature", "properties": {"norad_id": 37210, "name": "BEIDOU-2 G4 (C04)", "group": "beidou", "lat": 2.1167721458016677, "lon": 110.60838733886585, "alt_km": 35824.840575660084, "timestamp": "2025-12-21T14:40:48.181695+00:00", "meta": {"OBJECT_NAME": "BEIDOU-2 G4 (C04)", "OBJECT_ID": "2010-057A", "EPOCH": "2025-12-21T05:23:59.186976", "MEAN_MOTION": 1.00272006, "ECCENTRICITY": 0.00104145, "INCLINATION": 3.2045, "RA_OF_ASC_NODE": 69.9073, "ARG_OF_PERICENTER": 193.0114, "MEAN_ANOMALY": 68.2099, "EPHEMERIS_TYPE": 0, "CLASSIFICATION_TYPE": "U", "NORAD_CAT_ID": 37210, "ELEMENT_SET_NO": 999, "REV_AT_EPOCH": 5550, "BSTAR": 0, "MEAN_MOTION_DOT": -9.1e-07, "MEAN_MOTION_DDOT": 0}, "tle": {"line1": "1 37210U 10057A   25355.22499059 -.00000091  00000+0  00000+0 0  9995", "line2": "2 37210   3.2045  69.9073 0010414 193.0114  68.2099  1.00272006 55509"}}, "geometry": {"type": "Point", "coordinates": [110.60838733886585, 2.1167721458016677]}}, {"type": "Feature", "properties": {"norad_id": 37256, "name": "BEIDOU-2 IGSO-2 (C07)", "group": "beidou", "lat": 25.87406330365615, "lon": 68.05409732780066, "alt_km": 35716.6758702913, "timestamp": "2025-12-21T14:40:48.181710+00:00", "meta": {"OBJECT_NAME": "BEIDOU-2 IGSO-2 (C07)", "OBJECT_ID": "2010-068A", "EPOCH": "2025-12-20T17:09:56.640960", "MEAN_MOTION": 1.0028399, "ECCENTRICITY": 0.00484742, "INCLINATION": 47.8714, "RA_OF_ASC_NODE": 274.0512, "ARG_OF_PERICENTER": 216.3556, "MEAN_ANOMALY": 324.5527, "EPHEMERIS_TYPE": 0, "CLASSIFICATION_TYPE": "U", "NORAD_CAT_ID": 37256, "ELEMENT_SET_NO": 999, "REV_AT_EPOCH": 5500, "BSTAR": 0, "MEAN_MOTION_DOT": -1.89e-06, "MEAN_MOTION_DDOT": 0}, "tle": {"line1": "1 37256U 10068A   25354.71523890 -.00000189  00000+0  00000+0 0  9999", "line2": "2 37256  47.8714 274.0512 0048474 216.3556 324.5527  1.00283990 55002"}}, "geometry": {"type": "Point", "coordinates": [68.05409732780066, 25.87406330365615]}}, {"type": "Feature", "properties": {"norad_id": 37384, "name": "BEIDOU-2 IGSO-3 (C08)", "group": "beidou", "lat": 14.082944956900691, "lon": 49.486150376117315, "alt_km": 35933.362411354414, "timestamp": "2025-12-21T14:40:48.181724+00:00", "meta": {"OBJECT_NAME": "BEIDOU-2 IGSO-3 (C08)", "OBJECT_ID": "2011-013A", "EPOCH": "2025-12-20T17:53:25.122624", "MEAN_MOTION": 1.00268991, "ECCENTRICITY": 0.00353432, "INCLINATION": 62.1536, "RA_OF_ASC_NODE": 41.8403, "ARG_OF_PERICENTER": 187.7861, "MEAN_ANOMALY": 235.669, "EPHEMERIS_TYPE": 0, "CLASSIFICATION_TYPE": "U", "NORAD_CAT_ID": 37384, "ELEMENT_SET_NO": 999, "REV_AT_EPOCH": 5387, "BSTAR": 0, "MEAN_MOTION_DOT": -1.63e-06, "MEAN_MOTION_DDOT": 0}, "tle": {"line1": "1 37384U 11013A   25354.74542966 -.00000163  00000+0  00000+0 0  9992", "line2": "2 37384  62.1536  41.8403 0035343 187.7861 235.6690  1.00268991 53876"}}, "geometry": {"type": "Point", "coordinates": [49.486150376117315, 14.082944956900691]}}, {"type": "Feature", "properties": {"norad_id": 37763, "name": "BEIDOU-2 IGSO-4 (C09)", "group": "beidou", "lat": -43.854313298985275, "lon": 30.46933893073798, "alt_km": 35165.71102244358, "timestamp": "2025-12-21T14:40:48.181737+00:00", "meta": {"OBJECT_NAME": "BEIDOU-2 IGSO-4 (C09)", "OBJECT_ID": "2011-038A", "EPOCH": "2025-12-17T23:29:21.564384", "MEAN_MOTION": 1.00281312, "ECCENTRICITY": 0.01493143, "INCLINATION": 54.5836, "RA_OF_ASC_NODE": 167.2999, "ARG_OF_PERICENTER": 230.2426, "MEAN_ANOMALY": 136.1954, "EPHEMERIS_TYPE": 0, "CLASSIFICATION_TYPE": "U", "NORAD_CAT_ID": 37763, "ELEMENT_SET_NO": 999, "REV_AT_EPOCH": 5283, "BSTAR": 0, "MEAN_MOTION_DOT": 6.5e-07, "MEAN_MOTION_DDOT": 0}, "tle": {"line1": "1 37763U 11038A   25351.97872181  .00000065  00000+0  00000+0 0  9997", "line2": "2 37763  54.5836 167.2999 0149314 230.2426 136.1954  1.00281312 52838"}}, "geometry": {"type": "Point", "coordinates": [30.46933893073798, -43.854313298985275]}}, {"type": "Feature", "properties": {"norad_id": 37948, "name": "BEIDOU-2 IGSO-5 (C10)", "group": "beidou", "lat": 35.268431012314835, "lon": 54.27073525887324, "alt_km": 35797.08287418722, "timestamp": "2025-12-21T14:40:48.181750+00:00", "meta": {"OBJECT_NAME": "BEIDOU-2 IGSO-5 (C10)", "OBJECT_ID": "2011-073A", "EPOCH": "2025-12-20T17:45:23.966208", "MEAN_MOTION": 1.00289634, "ECCENTRICITY": 0.01098505, "INCLINATION": 48.0053, "RA_OF_ASC_NODE": 273.7608, "ARG_OF_PERICENTER": 222.3057, "MEAN_ANOMALY": 313.2909, "EPHEMERIS_TYPE": 0, "CLASSIFICATION_TYPE": "U", "NORAD_CAT_ID": 37948, "ELEMENT_SET_NO": 999, "REV_AT_EPOCH": 5134, "BSTAR": 0, "MEAN_MOTION_DOT": -1.51e-06, "MEAN_MOTION_DDOT": 0}, "tle": {"line1": "1 37948U 11073A   25354.73986072 -.00000151  00000+0  00000+0 0  9990", "line2": "2 37948  48.0053 273.7608 0109850 222.3057 313.2909  1.00289634 51343"}}, "geometry": {"type": "Point", "coordinates": [54.27073525887324, 35.268431012314835]}}, {"type": "Feature", "properties": {"norad_id": 38091, "name": "BEIDOU-2 G5 (C05)", "group": "beidou", "lat": -2.741143080344652, "lon": 9.560296502516918, "alt_km": 35766.334214138755, "timestamp": "2025-12-21T14:40:48.181763+00:00", "meta": {"OBJECT_NAME": "BEIDOU-2 G5 (C05)", "OBJECT_ID": "2012-008A", "EPOCH": "2025-12-19T16:03:31.750272", "MEAN_MOTION": 1.00268606, "ECCENTRICITY": 0.0012969, "INCLINATION": 3.1258, "RA_OF_ASC_NODE": 70.6861, "ARG_OF_PERICENTER": 231.3522, "MEAN_ANOMALY": 86.1393, "EPHEMERIS_TYPE": 0, "CLASSIFICATION_TYPE": "U", "NORAD_CAT_ID": 38091, "ELEMENT_SET_NO": 999, "REV_AT_EPOCH": 5056, "BSTAR": 0, "MEAN_MOTION_DOT": 7.9e-07, "MEAN_MOTION_DDOT": 0}, "tle": {"line1": "1 38091U 12008A   25353.66911748  .00000079  00000+0  00000+0 0  9996", "line2": "2 38091   3.1258  70.6861 0012969 231.3522  86.1393  1.00268606 50560"}}, "geometry": {"type": "Point", "coordinates": [9.560296502516918, -2.741143080344652]}}, {"type": "Feature", "properties": {"norad_id": 38250, "name": "BEIDOU-2 M3 (C11)", "group": "beidou", "lat": 53.343957310612595, "lon": 65.45823199681992, "alt_km": 21588.43817309461, "timestamp": "2025-12-21T14:40:48.181775+00:00", "meta": {"OBJECT_NAME": "BEIDOU-2 M3 (C11)", "OBJECT_ID": "2012-018A", "EPOCH": "2025-12-20T22:02:43.406880", "MEAN_MOTION": 1.86230123, "ECCENTRICITY": 0.00241142, "INCLINATION": 55.9133, "RA_OF_ASC_NODE": 310.8827, "ARG_OF_PERICENTER": 275.2065, "MEAN_ANOMALY": 84.51, "EPHEMERIS_TYPE": 0, "CLASSIFICATION_TYPE": "U", "NORAD_CAT_ID": 38250, "ELEMENT_SET_NO": 999, "REV_AT_EPOCH": 9262, "BSTAR": 0, "MEAN_MOTION_DOT": -6.6e-07, "MEAN_MOTION_DDOT": 0}, "tle": {"line1": "1 38250U 12018A   25354.91855795 -.00000066  00000+0  00000+0 0  9999", "line2": "2 38250  55.9133 310.8827 0024114 275.2065  84.5100  1.86230123 92627"}}, "geometry": {"type": "Point", "coordinates": [65.45823199681992, 53.343957310612595]}}, {"type": "Feature", "properties": {"norad_id": 38251, "name": "BEIDOU-2 M4 (C12)", "group": "beidou", "lat": 24.45577540600078, "lon": 112.07652877918868, "alt_km": 21552.110004126807, "timestamp": "2025-12-21T14:40:48.181787+00:00", "meta": {"OBJECT_NAME": "BEIDOU-2 M4 (C12)", "OBJECT_ID": "2012-018B", "EPOCH": "2025-12-20T20:24:53.726112", "MEAN_MOTION": 1.86229788, "ECCENTRICITY": 0.00153189, "INCLINATION": 55.8144, "RA_OF_ASC_NODE": 310.113, "ARG_OF_PERICENTER": 278.7848, "MEAN_ANOMALY": 81.0336, "EPHEMERIS_TYPE": 0, "CLASSIFICATION_TYPE": "U", "NORAD_CAT_ID": 38251, "ELEMENT_SET_NO": 999, "REV_AT_EPOCH": 9262, "BSTAR": 0, "MEAN_MOTION_DOT": -6.6e-07, "MEAN_MOTION_DDOT": 0}, "tle": {"line1": "1 38251U 12018B   25354.85062183 -.00000066  00000+0  00000+0 0  9994", "line2": "2 38251  55.8144 310.1130 0015318 278.7848  81.0336  1.86229788 92620"}}, "geometry": {"type": "Point", "coordinates": [112.07652877918868, 24.45577540600078]}}, {"type": "Feature", "properties": {"norad_id": 38775, "name": "BEIDOU-2 M6 (C14)", "group": "beidou", "lat": -13.23620941470392, "lon": 59.80369530647863, "alt_km": 21498.32811492141, "timestamp": "2025-12-21T14:40:48.181798+00:00", "meta": {"OBJECT_NAME": "BEIDOU-2 M6 (C14)", "OBJECT_ID": "2012-050B", "EPOCH": "2025-12-21T02:21:46.465344", "MEAN_MOTION": 1.86230924, "ECCENTRICITY": 0.00113708, "INCLINATION": 56.3853, "RA_OF_ASC_NODE": 68.7901, "ARG_OF_PERICENTER": 343.4825, "MEAN_ANOMALY": 16.5255, "EPHEMERIS_TYPE": 0, "CLASSIFICATION_TYPE": "U", "NORAD_CAT_ID": 38775, "ELEMENT_SET_NO": 999, "REV_AT_EPOCH": 8999, "BSTAR": 0, "MEAN_MOTION_DOT": -3.7e-07, "MEAN_MOTION_DDOT": 0}, "tle": {"line1": "1 38775U 12050B   25355.09845446 -.00000037  00000+0  00000+0 0  9997", "line2": "2 38775  56.3853  68.7901 0011370 343.4825  16.5255  1.86230924 89998"}}, "geometry": {"type": "Point", "coordinates": [59.80369530647863, -13.23620941470392]}}]}